{
  "type": "FeatureCollection",
  "features": [
    {
      "type": "Feature",
      "properties": { "name": "Ворошиловский" },
      "geometry": {
        "type": "Polygon",
        "coordinates": [[[37.75, 47.97], [37.82, 47.97], [37.84, 48.01], [37.78, 48.02], [37.75, 47.97]]]
      }
    },
    {
      "type": "Feature",
      "properties": { "name": "Киевский" },
      "geometry": {
        "type": "Polygon",
        "coordinates": [[[37.78, 48.02], [37.85, 48.01], [37.87, 48.05], [37.80, 48.06], [37.78, 48.02]]]
      }
    },
    {
      "type": "Feature",
      "properties": { "name": "Калининский" },
      "geometry": {
        "type": "Polygon",
        "coordinates": [[[37.85, 48.01], [37.92, 48.00], [37.94, 48.04], [37.87, 48.05], [37.85, 48.01]]]
      }
    },
    {
      "type": "Feature",
      "properties": { "name": "Куйбышевский" },
      "geometry": {
        "type": "Polygon",
        "coordinates": [[[37.68, 47.98], [37.75, 47.97], [37.78, 48.02], [37.70, 48.03], [37.68, 47.98]]]
      }
    },
    {
      "type": "Feature",
      "properties": { "name": "Будённовский" },
      "geometry": {
        "type": "Polygon",
        "coordinates": [[[37.84, 48.01], [37.92, 48.00], [37.90, 47.96], [37.82, 47.97], [37.84, 48.01]]]
      }
    },
    {
      "type": "Feature",
      "properties": { "name": "Ленинский" },
      "geometry": {
        "type": "Polygon",
        "coordinates": [[[37.70, 47.93], [37.78, 47.92], [37.82, 47.97], [37.75, 47.97], [37.70, 47.93]]]
      }
    },
    {
      "type": "Feature",
      "properties": { "name": "Кировский" },
      "geometry": {
        "type": "Polygon",
        "coordinates": [[[37.60, 47.95], [37.68, 47.94], [37.70, 47.98], [37.62, 47.99], [37.60, 47.95]]]
      }
    },
    {
      "type": "Feature",
      "properties": { "name": "Петровский" },
      "geometry": {
        "type": "Polygon",
        "coordinates": [[[37.55, 47.90], [37.65, 47.89], [37.68, 47.94], [37.58, 47.95], [37.55, 47.90]]]
      }
    },
    {
      "type": "Feature",
      "properties": { "name": "Пролетарский" },
      "geometry": {
        "type": "Polygon",
        "coordinates": [[[37.82, 47.92], [37.92, 47.91], [37.90, 47.96], [37.82, 47.97], [37.82, 47.92]]]
      }
    }
  ]
}
